STARLINK-35882          
1 67088U 25298P   26007.52630046  .00065459  00000+0  10571-2 0  9990
2 67088  70.0003 177.5715 0003553 273.9769  86.1011 15.52542604  3838
STARLINK-35763          
1 67089U 25298Q   26007.50002314  .00033858  00000+0  77336-3 0  9991
2 67089  70.0007 177.7124 0003307 269.5532 243.4424 15.42703849  5113
STARLINK-36060          
1 67090U 25298R   26007.39684288 -.00108806  00000+0 -18284-2 0  9990
2 67090  70.0003 177.9209 0005100 247.2531 112.8117 15.51918181  3812
STARLINK-36097          
1 67091U 25298S   26007.50002314 -.02030138  00000+0 -43572-1 0  9999
2 67091  70.0000 177.6430 0002990 272.7839 297.6528 15.47889502  5113
STARLINK-35792          
1 67092U 25298T   26007.50002314 -.03784540  00000+0 -89088-1 0  9996
2 67092  70.0006 177.6607 0003154 274.6817 282.4791 15.45746108  5055
STARLINK-35784          
1 67093U 25298U   26007.50002314  .00031222  00000+0  71373-3 0  9994
2 67093  70.0006 177.7626 0003077 274.6113 193.3959 15.42700960  5117
STARLINK-36202          
1 67094U 25298V   26007.50002314  .00034337  00000+0  78509-3 0  9993
2 67094  70.0008 177.7361 0003135 269.4706 221.6131 15.42669963  5115
STARLINK-36227          
1 67095U 25298W   26007.52390494  .00052251  00000+0  84689-3 0  9996
2 67095  70.0002 177.5610 0005015 286.7571  73.3065 15.52497653  3837
STARLINK-36228          
1 67096U 25298X   26007.52322476  .00161465  00000+0  24204-2 0  9996
2 67096  70.0003 177.5590 0014971 289.1850  70.7717 15.54114106  3830
STARLINK-36222          
1 67097U 25298Y   26007.20107861  .00073459  00000+0  11832-2 0  9999
2 67097  70.0004 178.4408 0003245 281.4754  78.6068 15.52580657  3786
STARLINK-36205          
1 67098U 25298Z   26007.50002314  .00031455  00000+0  71895-3 0  9996
2 67098  70.0006 177.7874 0003162 269.9014 176.1050 15.42702771  5112
STARLINK-36193          
1 67099U 25298AA  26007.52489096  .00045121  00000+0  10268-2 0  9996
2 67099  70.0004 177.9773 0003534 275.3072  84.7707 15.42737884  3821
