CCSDS_OMM_VERS = 2.0
CREATION_DATE  = 
ORIGINATOR     = 

OBJECT_NAME    = STARLINK-35882
OBJECT_ID      = 2025-298P
CENTER_NAME    = EARTH
REF_FRAME      = TEME
TIME_SYSTEM    = UTC
MEAN_ELEMENT_THEORY = SGP/SGP4

EPOCH          = 2026-01-07T12:37:52.359744
MEAN_MOTION    = 15.52542604
ECCENTRICITY   = .0003553
INCLINATION    = 70.0003
RA_OF_ASC_NODE = 177.5715
ARG_OF_PERICENTER = 273.9769
MEAN_ANOMALY   = 86.1011

EPHEMERIS_TYPE = 0
CLASSIFICATION_TYPE = U
NORAD_CAT_ID   = 67088
ELEMENT_SET_NO = 999
REV_AT_EPOCH   = 383
BSTAR          = .10571E-2
MEAN_MOTION_DOT = .65459E-3
MEAN_MOTION_DDOT = 0

CCSDS_OMM_VERS = 2.0
CREATION_DATE  = 
ORIGINATOR     = 

OBJECT_NAME    = STARLINK-35763
OBJECT_ID      = 2025-298Q
CENTER_NAME    = EARTH
REF_FRAME      = TEME
TIME_SYSTEM    = UTC
MEAN_ELEMENT_THEORY = SGP/SGP4

EPOCH          = 2026-01-07T12:00:01.999296
MEAN_MOTION    = 15.42703849
ECCENTRICITY   = .0003307
INCLINATION    = 70.0007
RA_OF_ASC_NODE = 177.7124
ARG_OF_PERICENTER = 269.5532
MEAN_ANOMALY   = 243.4424

EPHEMERIS_TYPE = 0
CLASSIFICATION_TYPE = U
NORAD_CAT_ID   = 67089
ELEMENT_SET_NO = 999
REV_AT_EPOCH   = 511
BSTAR          = .77336E-3
MEAN_MOTION_DOT = .33858E-3
MEAN_MOTION_DDOT = 0

CCSDS_OMM_VERS = 2.0
CREATION_DATE  = 
ORIGINATOR     = 

OBJECT_NAME    = STARLINK-36060
OBJECT_ID      = 2025-298R
CENTER_NAME    = EARTH
REF_FRAME      = TEME
TIME_SYSTEM    = UTC
MEAN_ELEMENT_THEORY = SGP/SGP4

EPOCH          = 2026-01-07T09:31:27.224832
MEAN_MOTION    = 15.51918181
ECCENTRICITY   = .00051
INCLINATION    = 70.0003
RA_OF_ASC_NODE = 177.9209
ARG_OF_PERICENTER = 247.2531
MEAN_ANOMALY   = 112.8117

EPHEMERIS_TYPE = 0
CLASSIFICATION_TYPE = U
NORAD_CAT_ID   = 67090
ELEMENT_SET_NO = 999
REV_AT_EPOCH   = 381
BSTAR          = -.18284E-2
MEAN_MOTION_DOT = -.108806E-2
MEAN_MOTION_DDOT = 0

CCSDS_OMM_VERS = 2.0
CREATION_DATE  = 
ORIGINATOR     = 

OBJECT_NAME    = STARLINK-36097
OBJECT_ID      = 2025-298S
CENTER_NAME    = EARTH
REF_FRAME      = TEME
TIME_SYSTEM    = UTC
MEAN_ELEMENT_THEORY = SGP/SGP4

EPOCH          = 2026-01-07T12:00:01.999296
MEAN_MOTION    = 15.47889502
ECCENTRICITY   = .000299
INCLINATION    = 70.0000
RA_OF_ASC_NODE = 177.6430
ARG_OF_PERICENTER = 272.7839
MEAN_ANOMALY   = 297.6528

EPHEMERIS_TYPE = 0
CLASSIFICATION_TYPE = U
NORAD_CAT_ID   = 67091
ELEMENT_SET_NO = 999
REV_AT_EPOCH   = 511
BSTAR          = -.43572E-1
MEAN_MOTION_DOT = -.2030138E-1
MEAN_MOTION_DDOT = 0

CCSDS_OMM_VERS = 2.0
CREATION_DATE  = 
ORIGINATOR     = 

OBJECT_NAME    = STARLINK-35792
OBJECT_ID      = 2025-298T
CENTER_NAME    = EARTH
REF_FRAME      = TEME
TIME_SYSTEM    = UTC
MEAN_ELEMENT_THEORY = SGP/SGP4

EPOCH          = 2026-01-07T12:00:01.999296
MEAN_MOTION    = 15.45746108
ECCENTRICITY   = .0003154
INCLINATION    = 70.0006
RA_OF_ASC_NODE = 177.6607
ARG_OF_PERICENTER = 274.6817
MEAN_ANOMALY   = 282.4791

EPHEMERIS_TYPE = 0
CLASSIFICATION_TYPE = U
NORAD_CAT_ID   = 67092
ELEMENT_SET_NO = 999
REV_AT_EPOCH   = 505
BSTAR          = -.89088E-1
MEAN_MOTION_DOT = -.378454E-1
MEAN_MOTION_DDOT = 0

CCSDS_OMM_VERS = 2.0
CREATION_DATE  = 
ORIGINATOR     = 

OBJECT_NAME    = STARLINK-35784
OBJECT_ID      = 2025-298U
CENTER_NAME    = EARTH
REF_FRAME      = TEME
TIME_SYSTEM    = UTC
MEAN_ELEMENT_THEORY = SGP/SGP4

EPOCH          = 2026-01-07T12:00:01.999296
MEAN_MOTION    = 15.42700960
ECCENTRICITY   = .0003077
INCLINATION    = 70.0006
RA_OF_ASC_NODE = 177.7626
ARG_OF_PERICENTER = 274.6113
MEAN_ANOMALY   = 193.3959

EPHEMERIS_TYPE = 0
CLASSIFICATION_TYPE = U
NORAD_CAT_ID   = 67093
ELEMENT_SET_NO = 999
REV_AT_EPOCH   = 511
BSTAR          = .71373E-3
MEAN_MOTION_DOT = .31222E-3
MEAN_MOTION_DDOT = 0

CCSDS_OMM_VERS = 2.0
CREATION_DATE  = 
ORIGINATOR     = 

OBJECT_NAME    = STARLINK-36202
OBJECT_ID      = 2025-298V
CENTER_NAME    = EARTH
REF_FRAME      = TEME
TIME_SYSTEM    = UTC
MEAN_ELEMENT_THEORY = SGP/SGP4

EPOCH          = 2026-01-07T12:00:01.999296
MEAN_MOTION    = 15.42669963
ECCENTRICITY   = .0003135
INCLINATION    = 70.0008
RA_OF_ASC_NODE = 177.7361
ARG_OF_PERICENTER = 269.4706
MEAN_ANOMALY   = 221.6131

EPHEMERIS_TYPE = 0
CLASSIFICATION_TYPE = U
NORAD_CAT_ID   = 67094
ELEMENT_SET_NO = 999
REV_AT_EPOCH   = 511
BSTAR          = .78509E-3
MEAN_MOTION_DOT = .34337E-3
MEAN_MOTION_DDOT = 0

CCSDS_OMM_VERS = 2.0
CREATION_DATE  = 
ORIGINATOR     = 

OBJECT_NAME    = STARLINK-36227
OBJECT_ID      = 2025-298W
CENTER_NAME    = EARTH
REF_FRAME      = TEME
TIME_SYSTEM    = UTC
MEAN_ELEMENT_THEORY = SGP/SGP4

EPOCH          = 2026-01-07T12:34:25.386816
MEAN_MOTION    = 15.52497653
ECCENTRICITY   = .0005015
INCLINATION    = 70.0002
RA_OF_ASC_NODE = 177.5610
ARG_OF_PERICENTER = 286.7571
MEAN_ANOMALY   = 73.3065

EPHEMERIS_TYPE = 0
CLASSIFICATION_TYPE = U
NORAD_CAT_ID   = 67095
ELEMENT_SET_NO = 999
REV_AT_EPOCH   = 383
BSTAR          = .84689E-3
MEAN_MOTION_DOT = .52251E-3
MEAN_MOTION_DDOT = 0

CCSDS_OMM_VERS = 2.0
CREATION_DATE  = 
ORIGINATOR     = 

OBJECT_NAME    = STARLINK-36228
OBJECT_ID      = 2025-298X
CENTER_NAME    = EARTH
REF_FRAME      = TEME
TIME_SYSTEM    = UTC
MEAN_ELEMENT_THEORY = SGP/SGP4

EPOCH          = 2026-01-07T12:33:26.619264
MEAN_MOTION    = 15.54114106
ECCENTRICITY   = .0014971
INCLINATION    = 70.0003
RA_OF_ASC_NODE = 177.5590
ARG_OF_PERICENTER = 289.1850
MEAN_ANOMALY   = 70.7717

EPHEMERIS_TYPE = 0
CLASSIFICATION_TYPE = U
NORAD_CAT_ID   = 67096
ELEMENT_SET_NO = 999
REV_AT_EPOCH   = 383
BSTAR          = .24204E-2
MEAN_MOTION_DOT = .161465E-2
MEAN_MOTION_DDOT = 0

CCSDS_OMM_VERS = 2.0
CREATION_DATE  = 
ORIGINATOR     = 

OBJECT_NAME    = STARLINK-36222
OBJECT_ID      = 2025-298Y
CENTER_NAME    = EARTH
REF_FRAME      = TEME
TIME_SYSTEM    = UTC
MEAN_ELEMENT_THEORY = SGP/SGP4

EPOCH          = 2026-01-07T04:49:33.191904
MEAN_MOTION    = 15.52580657
ECCENTRICITY   = .0003245
INCLINATION    = 70.0004
RA_OF_ASC_NODE = 178.4408
ARG_OF_PERICENTER = 281.4754
MEAN_ANOMALY   = 78.6068

EPHEMERIS_TYPE = 0
CLASSIFICATION_TYPE = U
NORAD_CAT_ID   = 67097
ELEMENT_SET_NO = 999
REV_AT_EPOCH   = 378
BSTAR          = .11832E-2
MEAN_MOTION_DOT = .73459E-3
MEAN_MOTION_DDOT = 0

CCSDS_OMM_VERS = 2.0
CREATION_DATE  = 
ORIGINATOR     = 

OBJECT_NAME    = STARLINK-36205
OBJECT_ID      = 2025-298Z
CENTER_NAME    = EARTH
REF_FRAME      = TEME
TIME_SYSTEM    = UTC
MEAN_ELEMENT_THEORY = SGP/SGP4

EPOCH          = 2026-01-07T12:00:01.999296
MEAN_MOTION    = 15.42702771
ECCENTRICITY   = .0003162
INCLINATION    = 70.0006
RA_OF_ASC_NODE = 177.7874
ARG_OF_PERICENTER = 269.9014
MEAN_ANOMALY   = 176.1050

EPHEMERIS_TYPE = 0
CLASSIFICATION_TYPE = U
NORAD_CAT_ID   = 67098
ELEMENT_SET_NO = 999
REV_AT_EPOCH   = 511
BSTAR          = .71895E-3
MEAN_MOTION_DOT = .31455E-3
MEAN_MOTION_DDOT = 0

CCSDS_OMM_VERS = 2.0
CREATION_DATE  = 
ORIGINATOR     = 

OBJECT_NAME    = STARLINK-36193
OBJECT_ID      = 2025-298AA
CENTER_NAME    = EARTH
REF_FRAME      = TEME
TIME_SYSTEM    = UTC
MEAN_ELEMENT_THEORY = SGP/SGP4

EPOCH          = 2026-01-07T12:35:50.578944
MEAN_MOTION    = 15.42737884
ECCENTRICITY   = .0003534
INCLINATION    = 70.0004
RA_OF_ASC_NODE = 177.9773
ARG_OF_PERICENTER = 275.3072
MEAN_ANOMALY   = 84.7707

EPHEMERIS_TYPE = 0
CLASSIFICATION_TYPE = U
NORAD_CAT_ID   = 67099
ELEMENT_SET_NO = 999
REV_AT_EPOCH   = 382
BSTAR          = .10268E-2
MEAN_MOTION_DOT = .45121E-3
MEAN_MOTION_DDOT = 0

